HELIOS 1B               
1 25977U 99064A   20129.06128266  .00000028  00000-0  10633-4 0  9990
2 25977  98.2759 282.5484 0002574 103.1707 256.9792 14.82475279369133
TERRA                   
1 25994U 99068A   20129.47948081  .00000050  00000-0  21126-4 0  9997
2 25994  98.2138 204.3173 0001213  96.3029 263.8307 14.57111608 84496
SL-16 R/B               
1 26070U 00006B   20129.09749084  .00000101  00000-0  75966-4 0  9995
2 26070  71.0028 258.0523 0016986 193.0535 167.0151 14.15464752 46927
TITAN 4B R/B            
1 26474U 00047B   20128.66728301  .00000088  00000-0  18609-4 0  9994
2 26474  67.9933 187.9591 0060492 244.5298 114.9578 14.95945954 73221
ENVISAT                 
1 27386U 02009A   20129.49402149  .00000006  00000-0  15409-4 0  9993
2 27386  98.1375 138.6432 0001343  86.8653  29.0251 14.37979871952871
IDEFIX & ARIANE 42P R/B 
1 27422U 02021B   20129.13260312 -.00000016  00000-0  10162-4 0  9996
2 27422  98.3479  91.8775 0012189 356.2865   3.8225 14.29287162939409
AQUA                    
1 27424U 02022A   20129.25006527  .00000074  00000-0  26508-4 0  9992
2 27424  98.2070  70.4643 0002756  96.3990  38.4983 14.57120751958018
CZ-4B R/B               
1 27432U 02024C   20129.00682198 -.00000035  00000-0  61196-5 0  9991
2 27432  99.0881 130.5139 0049485 290.9066 127.1540 14.14092380927931
MIDORI II (ADEOS-II)    
1 27597U 02056A   20129.09201740  .00000029  00000-0  29426-4 0  9998
2 27597  98.5171  77.6994 0002124  95.6125 264.5299 14.27444672906050
H-2A R/B                
1 27601U 02056E   20129.13949087  .00000027  00000-0  24343-4 0  9993
2 27601  98.2300 166.9762 0072882  38.6296  28.5543 14.31948103908927
CZ-4B R/B               
1 28059U 03049C   20129.02689004  .00000016  00000-0  15797-4 0  9993
2 28059  98.4872  45.0994 0048897 262.1470  97.4173 14.52597754876969
CZ-2C R/B               
1 28222U 04012C   20129.16026003  .00000293  00000-0  21534-4 0  9998
2 28222  97.6737  91.6039 0047446 166.1771 204.4644 15.10366697879911
SL-16 R/B               
1 28353U 04021B   20129.17338812  .00000310  00000-0  18738-3 0  9999
2 28353  71.0027  23.8050 0004116  15.3921 344.7326 14.14230382821458
CZ-4B R/B               
1 28415U 04035C   20129.19441402  .00000635  00000-0  45563-4 0  9992
2 28415  97.6178 171.2045 0052866 128.6975 231.8998 15.06846498857578
CZ-2C R/B               
1 28480U 04046B   20129.13282904 -.00000029  00000-0  44237-5 0  9996
2 28480  98.0826 167.1942 0141525 345.0131  78.8792 14.25720363804671
ARIANE 5 R/B            
1 28499U 04049H   20128.88647791  .00000009  00000-0  84015-5 0  9994
2 28499  98.0514 230.5378 0093104  45.0566  67.2569 14.80024166830134
CZ-2D R/B               
1 28738U 05024B   20129.14457413  .00000352  00000-0  24091-4 0  9992
2 28738  97.3858 153.0487 0010997 330.5286  29.5323 15.12017282815334
SUZAKU (ASTRO-EII)      
1 28773U 05025A   20129.09669351  .00000913  00000-0  40059-4 0  9997
2 28773  31.3822 279.0751 0004335 163.4422 196.6367 15.17528301817823
ALOS (DAICHI)           
1 28931U 06002A   20129.32904097  .00000126  00000-0  33250-4 0  9995
2 28931  97.8433 117.0308 0000771 109.8624 250.2667 14.62705422761830
H-2A R/B                
1 28932U 06002B   20128.94641800  .00000208  00000-0  25230-4 0  9993
2 28932  98.3205 116.7007 0090107  93.9817 319.1492 14.92202694775107
AKARI (ASTRO-F)         
1 28939U 06005A   20128.94572849  .00002697  00000-0  73469-4 0  9990
2 28939  98.2294  98.4098 0095386 105.6584 255.5206 15.34080082774683
RESURS-DK 1             
1 29228U 06021A   20128.87208979  .00000054  00000-0  11389-4 0  9990
2 29228  69.9348 291.3075 0004855 201.5730 158.5227 15.02535071766650
GENESIS 1               
1 29252U 06029A   20129.16083586  .00000205  00000-0  20053-4 0  9999
2 29252  64.5214  73.3665 0016438 179.0575 181.0583 15.18100683761980
CZ-4B R/B               
1 29507U 06046C   20129.08320785  .00000821  00000-0  68528-4 0  9990
2 29507  97.7569 151.0431 0047061 300.3285  59.3288 15.00608866739365
CZ-2C R/B               
1 31114U 07010B   20129.12201098 -.00000006  00000-0  15793-4 0  9991
2 31114  98.2664 344.6977 0060296  25.8013 334.6150 14.19318898677294
COSMO-SKYMED 1          
1 31598U 07023A   20129.51166370 -.00000211  00000-0 -19991-4 0  9990
2 31598  97.8894 313.2675 0001589  91.4884 268.6503 14.82153268698910
GENESIS 2               
1 31789U 07028A   20129.15773997  .00000298  00000-0  25006-4 0  9993
2 31789  64.5017 114.8798 0049119 248.1396 111.4499 15.17237762709060
COSMOS 2428             
1 31792U 07029A   20129.05416510 -.00000270  00000-0 -12031-3 0  9997
2 31792  70.9189 357.8102 0006384 126.3948 233.7763 14.12354966663162
SL-16 R/B               
1 31793U 07029B   20129.04508019  .00000294  00000-0  17834-3 0  9993
2 31793  70.9759 331.2440 0002151 277.8406 194.4163 14.14430239663972
KORONAS-FOTON           
1 33504U 09003A   20129.09649642  .00000289  00000-0  13428-4 0  9992
2 33504  82.4417 262.9686 0020458  61.3734 298.9553 15.15626239621274
H-2A R/B                
1 38341U 12025E   20129.12849642  .00000134  00000-0  23252-4 0  9995
2 38341  98.4948 281.5463 0055512   2.8624 357.2895 14.84021377431466
CUSAT 2 & FALCON 9 R/B  
1 39271U 13055G   20129.10578173  .00002147  00000-0  52094-4 0  9990
2 39271  80.9646 310.3938 0589285 291.5822  62.3575 14.47640203344897
SL-4 R/B                
1 39679U 14021B   20128.97845078  .00000465  00000-0  40540-4 0  9995
2 39679  51.6160 295.2473 0172283 165.3561 195.2491 15.06387102332920
ALOS-2                  
1 39766U 14029A   20129.54010481  .00000107  00000-0  21180-4 0  9998
2 39766  97.9195 226.7063 0001553  88.1275 272.0108 14.79475266321797
SL-27 R/B               
1 40354U 14084B   20129.25220505  .00000785  00000-0  20415-4 0  9994
2 40354  74.7364 111.2623 0038649 318.7351  41.0941 15.40172518301943
YAOGAN 29               
1 41038U 15069A   20129.42656092  .00000029  00000-0  10737-4 0  9998
2 41038  98.0083 117.4695 0002051  56.7791 303.3617 14.80446156240358
ASTRO-H (HITOMI)        
1 41337U 16012A   20128.83693830  .00000233  00000-0  12019-4 0  9996
2 41337  31.0055 267.2860 0012380  29.1308 331.0015 14.98678570231400
SHENZHOU-11 MODULE      
1 41868U 16061G   20129.19641836  .00041148  89527-5  10823-3 0  9994
2 41868  42.7900  31.4567 0013976 223.9590 268.0297 15.94818027199630
HXMT (HUIYAN)           
1 42758U 17034A   20129.54422788  .00000223  00000-0  27615-4 0  9997
2 42758  43.0184 254.9275 0009555 139.4076 319.3918 15.08817248159841
CZ-2C R/B               
1 43521U 18054D   20129.17250019  .00000414  00000-0  24775-4 0  9990
2 43521  35.1539  68.1988 0082265 122.7158 238.1519 15.10985800103057
AEOLUS                  
1 43600U 18066A   20129.25019239  .00029631  00000-0  11828-3 0  9993
2 43600  96.7199 136.2507 0006088 100.4008 259.7952 15.86525401 98996
SAOCOM 1A               
1 43641U 18076A   20129.45235155  .00000029  00000-0  10207-4 0  9999
2 43641  97.8893 316.1406 0001480  85.4141 274.7241 14.82154622 85679
CREW DRAGON DEMO-1 DEB  
1 44064U 19011B   20129.09948410  .00010549  00000-0  11449-3 0  9990
2 44064  51.6368 156.7969 0002777 272.8414  87.2275 15.64128003 66590
